OBJECT_NAME,OBJECT_ID,EPOCH,MEAN_MOTION,ECCENTRICITY,INCLINATION,RA_OF_ASC_NODE,ARG_OF_PERICENTER,MEAN_ANOMALY,EPHEMERIS_TYPE,CLASSIFICATION_TYPE,NORAD_CAT_ID,ELEMENT_SET_NO,REV_AT_EPOCH,BSTAR,MEAN_MOTION_DOT,MEAN_MOTION_DDOT
PROBA-1,2001-049B,2026-06-10T13:34:02.504928,15.07469824,.0055677,97.9604,169.8661,144.0965,216.4024,0,U,26958,999,34262,.18484E-3,.2832E-4,0
CUTE-1 (CO-55),2003-031E,2026-06-10T07:02:25.997280,14.24331486,.0009062,98.6735,169.9388,198.4654,161.6197,0,U,27844,999,19069,.12935E-3,.255E-5,0
CUBESAT XI-IV (CO-57),2003-031J,2026-06-10T06:40:50.081952,14.23617138,.0008624,98.6767,169.6423,218.4782,141.5782,0,U,27848,999,19039,.11264E-3,.213E-5,0
APRIZESAT 4,2009-041D,2026-06-10T10:42:52.335648,14.83870372,.0042866,98.1412,236.6325,345.2668,14.7293,0,U,35684,999,91036,.76372E-4,.584E-5,0
APRIZESAT 3,2009-041F,2026-06-10T08:16:08.865120,14.96220597,.0062771,98.2053,314.2413,89.7329,271.1083,0,U,35686,999,91535,.10508E-3,.1165E-4,0
PROBA-2,2009-059B,2026-06-10T12:00:40.118112,14.54859541,.0012163,98.2450,344.9461,304.8892,55.1161,0,U,36037,999,88055,.49671E-4,.168E-5,0
APRIZESAT 5,2011-044E,2026-06-10T07:39:11.257056,14.81060837,.0052882,98.2454,94.1647,26.2317,334.1555,0,U,37792,999,79777,.13263E-3,.994E-5,0
APRIZESAT 6,2011-044F,2026-06-10T12:41:12.412896,14.76905904,.0044412,98.2371,71.8921,106.6912,67.6097,0,U,37793,999,79616,.96461E-4,.633E-5,0
PROBA-V,2013-021A,2026-06-10T12:17:50.057088,14.23595585,.0004864,98.3581,140.4487,139.3348,220.8195,0,U,39159,999,68016,.4755E-4,.67E-6,0
APRIZESAT 7,2013-066A,2026-06-10T07:28:09.418368,14.91549644,.0034525,97.7706,114.6301,232.6836,127.1235,0,U,39416,999,68020,.85701E-4,.81E-5,0
APRIZESAT 8,2013-066K,2026-06-10T01:53:45.574080,14.87638823,.0044754,97.8219,108.6462,310.6608,49.0722,0,U,39425,999,67861,.10783461E-3,.941E-5,0
BUGSAT-1 (TITA),2014-033E,2026-06-10T13:34:50.384352,15.15513138,.0027561,98.0421,253.7278,200.7629,159.2485,0,U,40014,999,65483,.23889E-3,.4491E-4,0
SAUDISAT 4,2014-033G,2026-06-10T06:55:04.308384,14.79535246,.0046239,97.7575,307.6620,95.7410,264.9076,0,U,40016,999,64505,.90933E-4,.641E-5,0
APRIZESAT 9,2014-033J,2026-06-10T06:49:32.504736,14.74205173,.0065227,97.9051,294.6520,221.5813,138.0425,0,U,40018,999,64254,.90385E-4,.564E-5,0
APRIZESAT 10,2014-033K,2026-06-10T07:46:26.031360,14.70876511,.007755,97.9641,288.4368,296.1424,63.1820,0,U,40019,999,64124,.64658E-4,.36E-5,0
TECHDEMOSAT-1 (TDS-1),2014-037H,2026-06-10T11:31:10.546752,15.13193146,.0004615,98.3808,153.0283,297.1726,62.9032,0,U,40076,999,64721,.36722E-3,.6443E-4,0
TECHNOSAT,2017-042E,2026-06-10T08:01:25.311936,15.04911814,.0018783,97.4262,319.2540,115.9185,244.3980,0,U,42829,999,48567,.21642E-3,.3016E-4,0
FLYING LAPTOP,2017-042G,2026-06-10T12:28:18.791616,15.01102920,.0019264,97.4659,317.3109,143.5210,216.7331,0,U,42831,999,48545,.27892E-3,.3526E-4,0
HAWK-A,2018-099H,2026-06-10T09:23:06.224064,15.24562860,.0033395,97.3921,213.7155,311.0189,48.8162,0,U,43765,999,41206,.22818E-3,.5634E-4,0
HAWK-B,2018-099AN,2026-06-10T09:42:28.678176,15.22751140,.003098,97.3970,213.1579,329.7971,30.1478,0,U,43794,999,41200,.23025E-3,.5373E-4,0
HAWK-C,2018-099AT,2026-06-10T02:54:13.201632,15.28004790,.0039083,97.3897,214.3269,311.9023,47.8885,0,U,43799,999,41283,.2474E-3,.6835E-4,0
SALSAT,2020-068K,2026-06-10T06:39:18.129024,15.29700288,.0008649,97.8853,163.9217,336.5873,23.4971,0,U,46495,999,31430,.26695E-3,.7605E-4,0
HAWK-2C,2021-006CT,2026-06-10T08:54:10.487808,15.34580913,.0005905,97.2285,205.8170,211.1275,148.9620,0,U,47502,999,29845,.17864E-3,.5909E-4,0
HAWK-2A,2021-006CW,2026-06-10T08:57:51.615648,15.34595916,.0005342,97.2326,206.4933,214.7925,145.2970,0,U,47505,999,29845,.17854E-3,.5909E-4,0
HAWK-2B,2021-006CZ,2026-06-10T08:51:57.614112,15.34673382,.0005896,97.2198,204.8319,212.8990,147.1887,0,U,47508,999,29845,.1989E-3,.6609E-4,0
HAWK-3B,2021-059BE,2026-06-10T12:02:01.620096,15.69002522,.0003692,97.6675,357.5807,3.1464,356.9820,0,U,48931,999,27680,.3597E-3,.41446E-3,0
HAWK-3C,2021-059BX,2026-06-10T12:01:34.300416,15.69001636,.0004111,97.6795,3.2546,3.5921,356.5369,0,U,48948,999,27680,.36782E-3,.42392E-3,0
HAWK-3A,2021-059CG,2026-06-10T12:01:25.576608,15.69006053,.0004168,97.6736,0.4648,5.1300,355.0003,0,U,48957,999,27680,.37364E-3,.43077E-3,0
HAWK-5C,2022-057Y,2026-06-09T16:34:16.357440,15.51125293,.00053774,97.6588,319.8768,104.7995,255.3852,0,U,52754,999,22518,.30369639E-3,.17632E-3,0
HAWK-5B,2022-057AA,2026-06-09T22:45:38.628000,15.51136769,.00060002,97.6594,318.4998,97.0812,263.1122,0,U,52756,999,22522,.31345947E-3,.18213E-3,0
HAWK-5A,2022-057AB,2026-06-09T22:45:19.469664,15.51132826,.0005941,97.6594,319.3311,100.5201,259.6720,0,U,52757,999,22522,.31770187E-3,.18459E-3,0
